[{"OBJECT_NAME":"YAOGAN-36 04C","OBJECT_ID":"2022-171E","EPOCH":"2026-03-09T18:55:44.889600","MEAN_MOTION":15.29852307,"ECCENTRICITY":0.00066848,"INCLINATION":34.9797,"RA_OF_ASC_NODE":96.6578,"ARG_OF_PERICENTER":275.3761,"MEAN_ANOMALY":84.6192,"EPHEMERIS_TYPE":0,"CLASSIFICATION_TYPE":"U","NORAD_CAT_ID":54750,"ELEMENT_SET_NO":999,"REV_AT_EPOCH":18024,"BSTAR":0.00054591902,"MEAN_MOTION_DOT":0.00016196,"MEAN_MOTION_DDOT":0},{"OBJECT_NAME":"STARLINK-34460","OBJECT_ID":"2025-236P","EPOCH":"2026-03-09T09:26:12.759072","MEAN_MOTION":15.30192746,"ECCENTRICITY":0.00013666,"INCLINATION":53.1578,"RA_OF_ASC_NODE":104.9334,"ARG_OF_PERICENTER":59.2277,"MEAN_ANOMALY":300.8858,"EPHEMERIS_TYPE":0,"CLASSIFICATION_TYPE":"U","NORAD_CAT_ID":66099,"ELEMENT_SET_NO":999,"REV_AT_EPOCH":2290,"BSTAR":0.00045447684,"MEAN_MOTION_DOT":0.00013122,"MEAN_MOTION_DDOT":0}]
