YAOGAN-36 04C           
1 54750U 22171E   26068.78871400  .00016196  00000+0  54592-3 0  9991
2 54750  34.9797  96.6578 0006685 275.3761  84.6192 15.29852307180246
STARLINK-34460          
1 66099U 25236P   26068.39320323  .00013122  00000+0  45448-3 0  9991
2 66099  53.1578 104.9334 0001366  59.2277 300.8858 15.30192746 22906
